OBJECT_NAME,OBJECT_ID,EPOCH,MEAN_MOTION,ECCENTRICITY,INCLINATION,RA_OF_ASC_NODE,ARG_OF_PERICENTER,MEAN_ANOMALY,EPHEMERIS_TYPE,CLASSIFICATION_TYPE,NORAD_CAT_ID,ELEMENT_SET_NO,REV_AT_EPOCH,BSTAR,MEAN_MOTION_DOT,MEAN_MOTION_DDOT
LUDI TANCE 1-01A (L-SAR 01A),2022-007A,2026-06-08T07:22:20.530848,14.88411238,.00015754,97.8103,166.8534,90.6848,269.4549,0,U,51284,999,23715,.71788905E-4,.611E-5,0
LUDI TANCE 1-01B (L-SAR 01B),2022-018A,2026-06-08T06:33:54.213696,14.88407439,.0001604,97.8110,166.8161,92.1290,268.0111,0,U,51822,999,23238,.74573E-4,.637E-5,0
2022-019D,2022-019D,2026-06-08T06:23:34.452672,15.69740894,.00059515,97.3658,251.2738,166.3093,193.8331,0,U,51827,999,23830,.53167977E-3,.63419E-3,0
2022-019J,2022-019J,2026-06-08T06:08:31.102656,15.20401553,.00069422,97.3426,222.2973,259.2298,100.8156,0,U,51832,999,23644,.86964907E-4,.1828E-4,0
JILIN-1 GAOFEN 03D15,2022-019R,2026-06-05T22:08:09.218688,16.31769192,.0012717,97.3560,254.9435,264.8257,95.1587,0,U,51839,999,23834,.9485E-3,.4986191E-1,.24754E-5
2022-023F,2022-023F,2026-06-08T06:01:21.038880,15.17922282,.01293056,63.4455,303.8602,342.7940,16.8808,0,U,51951,999,23635,.51051666E-3,.12737E-3,0
CZ-4C R/B,2022-027B,2026-06-08T03:42:27.988704,13.65479338,.02317826,63.3939,82.9703,22.6470,338.4596,0,U,52085,999,21080,.78031995E-4,-.19E-6,0
MERIDIAN 10,2022-030A,2026-06-07T23:56:57.816960,2.00614743,.67811963,62.6782,141.7803,272.8620,17.6762,0,U,52145,999,3084,0,.245E-5,0
OMNI-L1,2022-033A,2026-06-08T04:52:59.084832,14.82716596,.00041331,97.8390,238.5555,326.8926,33.2029,0,U,52157,999,22612,.25376131E-3,.1996E-4,0
ENMAP,2022-033C,2026-06-08T06:41:15.894816,14.74982093,.00014108,97.9786,241.6548,82.5638,277.5731,0,U,52159,999,22534,.12283779E-3,.776E-5,0
ARCSAT-1,2022-033E,2026-06-07T21:56:53.587968,15.53395557,.00040236,97.2745,251.0514,215.5333,144.5653,0,U,52161,999,23426,.21512987E-3,.13517E-3,0
GLOBAL-18,2022-034B,2026-06-07T16:30:29.007936,15.45867840,.00033002,52.9826,302.0267,226.9821,133.0909,0,U,52196,999,23549,.50294344E-3,.24471E-3,0
GAOFEN-3 03,2022-035A,2026-06-08T06:43:03.671904,14.42213693,.00010941,98.4067,167.9897,96.0977,264.0337,0,U,52200,999,21956,-.1023655E-4,-.77E-6,0
DAQI-1,2022-039A,2026-06-08T06:58:11.336736,14.57673626,.00024566,98.1482,98.3265,298.8112,61.2840,0,U,52257,999,22064,.1439256E-3,.611E-5,0
BRO-6,2022-047AE,2026-06-08T07:04:20.192160,15.49938855,.00056631,97.3393,250.1836,107.0508,253.1364,0,U,52422,999,22977,.56400945E-3,.31544E-3,0
JILIN-1 GAOFEN 3D27,2022-048B,2026-06-08T06:09:29.598912,15.73331220,.00021027,97.5698,272.3976,92.2134,267.9371,0,U,52444,999,22807,.68717964E-3,.95595E-3,0
JILIN-1 GAOFEN 3D28,2022-048C,2026-06-08T06:32:01.574880,15.76049609,.00016457,97.5634,272.5308,145.8395,214.2976,0,U,52445,999,22812,.70540326E-3,.110515E-2,0
VIGORIDE-3,2022-057AE,2026-06-07T23:28:52.997088,15.27184419,.00090798,97.6596,298.7108,149.1964,210.9809,0,U,52760,999,22375,.23829262E-3,.6279E-4,0
ION SCV-006,2022-057AF,2026-06-08T02:22:10.664256,15.45065954,.00181816,97.6093,307.2875,144.3176,215.9291,0,U,52761,999,22471,.28902846E-3,.13652E-3,0
SHERPA-AC1,2022-057AH,2026-06-08T03:26:01.060512,15.36137294,.0008844,97.6677,307.9944,120.6877,239.5239,0,U,52763,999,22431,.19419476E-3,.6757E-4,0
OMNI-L2,2022-057AR,2026-06-08T03:19:49.252800,14.81347322,.00066193,97.4718,222.1051,8.4929,351.6396,0,U,52771,999,21905,.19602254E-3,.1484E-4,0
STEP CUBE LAB-II,2022-065D,2026-06-08T07:33:33.771744,14.63290184,.00097984,98.2223,303.2447,57.4420,302.7727,0,U,52897,999,21020,.19074385E-3,.936E-5,0
RANDEV,2022-065E,2026-06-08T04:21:36.414144,14.63676471,.00091094,98.2208,303.4594,58.5831,301.6260,0,U,52898,999,20993,.19011653E-3,.941E-5,0
SNUGLITE-II,2022-065F,2026-06-08T01:54:46.930176,14.64331712,.00085054,98.2192,303.9272,58.7360,301.4675,0,U,52899,999,20966,.22015263E-3,.1114E-4,0
MIMAN,2022-065G,2026-06-08T05:14:43.355904,14.61834607,.00086894,98.2250,301.7468,59.9205,300.2857,0,U,52900,999,20913,.13044679E-3,.604E-5,0
STARLINK-4362,2022-077A,2026-06-08T07:02:59.792640,15.05653158,.00018492,97.3867,338.6379,81.5166,278.6271,0,U,53043,999,21454,.19431344E-4,.223E-5,0
LARES-2,2022-080A,2026-06-07T07:24:15.159456,6.38965096,.0005412,70.1642,308.7172,333.4127,26.6130,0,U,53105,999,9103,0,-.8E-7,0
GREENCUBE (IO-117),2022-080E,2026-06-01T11:09:37.753056,6.42583280,.00088692,70.1435,303.7143,293.3663,66.6064,0,U,53109,999,9105,0,-.3E-7,0
STARLINK-4410,2022-084R,2026-06-08T04:21:20.095776,15.27119501,.00018986,97.6026,220.0809,66.2462,293.8976,0,U,53204,999,21363,.84007799E-3,.22312E-3,0
COSMOS 2558,2022-089A,2026-06-08T01:21:30.544128,15.73322119,.0000736,97.2248,262.7618,185.1064,175.0193,0,U,53323,999,21639,.75942E-3,.105731E-2,0
