[
  {
    "name": "ION SCV-006",
    "tle1": "1 52761U 22057AF  26159.09873454  .00013652  00000-0  28903-3 0  9992",
    "tle2": "2 52761  97.6093 307.2875 0018182 144.3176 215.9291 15.45065954224714",
    "norad_id": "52761"
  },
  {
    "name": "SHERPA-AC1",
    "tle1": "1 52763U 22057AH  26159.14306783  .00006757  00000-0  19419-3 0  9996",
    "tle2": "2 52763  97.6677 307.9944 0008844 120.6877 239.5239 15.36137294224314",
    "norad_id": "52763"
  },
  {
    "name": "OMNI-L2",
    "tle1": "1 52771U 22057AR  26159.13876450  .00001484  00000-0  19602-3 0  9993",
    "tle2": "2 52771  97.4718 222.1051 0006619   8.4929 351.6396 14.81347322219052",
    "norad_id": "52771"
  },
  {
    "name": "BRO-6",
    "tle1": "1 52422U 22047AE  26159.29467815  .00031544  00000-0  56401-3 0  9991",
    "tle2": "2 52422  97.3393 250.1836 0005663 107.0508 253.1364 15.49938855229775",
    "norad_id": "52422"
  },
  {
    "name": "STEP CUBE LAB-II",
    "tle1": "1 52897U 22065D   26159.31497421  .00000936  00000-0  19074-3 0  9992",
    "tle2": "2 52897  98.2223 303.2447 0009798  57.4420 302.7727 14.63290184210208",
    "norad_id": "52897"
  },
  {
    "name": "RANDEV",
    "tle1": "1 52898U 22065E   26159.18167146  .00000941  00000-0  19012-3 0  9994",
    "tle2": "2 52898  98.2208 303.4594 0009109  58.5831 301.6260 14.63676471209936",
    "norad_id": "52898"
  },
  {
    "name": "SNUGLITE-II",
    "tle1": "1 52899U 22065F   26159.07970984  .00001114  00000-0  22015-3 0  9995",
    "tle2": "2 52899  98.2192 303.9272 0008505  58.7360 301.4675 14.64331712209660",
    "norad_id": "52899"
  },
  {
    "name": "MIMAN",
    "tle1": "1 52900U 22065G   26159.21855736  .00000604  00000-0  13045-3 0  9997",
    "tle2": "2 52900  98.2250 301.7468 0008689  59.9205 300.2857 14.61834607209134",
    "norad_id": "52900"
  },
  {
    "name": "AVUM R/B",
    "tle1": "1 53109U 22080E   26152.46502029 -.00000003  00000-0  00000-0 0  9998",
    "tle2": "2 53109  70.1435 303.7143 0008869 293.3663  66.6064  6.42583280 91055",
    "norad_id": "53109"
  },
  {
    "name": "LARES-2",
    "tle1": "1 53105U 22080A   26158.30850879 -.00000008  00000-0  00000-0 0  9997",
    "tle2": "2 53105  70.1642 308.7172 0005412 333.4127  26.6130  6.38965096 91032",
    "norad_id": "53105"
  },
  {
    "name": "VIGORIDE 3",
    "tle1": "1 52760U 22057AE  26158.97839117  .00006279  00000-0  23829-3 0  9994",
    "tle2": "2 52760  97.6596 298.7108 0009080 149.1964 210.9809 15.27184419223750",
    "norad_id": "52760"
  },
  {
    "name": "OMNI-L1",
    "tle1": "1 52157U 22033A   26159.20346163  .00001996  00000-0  25376-3 0  9999",
    "tle2": "2 52157  97.8390 238.5555 0004133 326.8926  33.2029 14.82716596226129",
    "norad_id": "52157"
  },
  {
    "name": "STARLINK-4410",
    "tle1": "1 53204U 22084R   26159.18148259  .00022312  00000-0  84008-3 0  9994",
    "tle2": "2 53204  97.6026 220.0809 0001899  66.2462 293.8976 15.27119501213631",
    "norad_id": "53204"
  },
  {
    "name": "STARLINK-4362",
    "tle1": "1 53043U 22077A   26159.29374760  .00000223  00000-0  19431-4 0  9993",
    "tle2": "2 53043  97.3867 338.6379 0001849  81.5166 278.6271 15.05653158214543",
    "norad_id": "53043"
  },
  {
    "name": "OBJECT D",
    "tle1": "1 51827U 22019D   26159.26637098  .00063419  00000-0  53168-3 0  9990",
    "tle2": "2 51827  97.3658 251.2738 0005951 166.3093 193.8331 15.69740894238306",
    "norad_id": "51827"
  },
  {
    "name": "OBJECT R",
    "tle1": "1 51839U 22019R   26156.92232892  .04986191  24754-5  94850-3 0  9991",
    "tle2": "2 51839  97.3560 254.9435 0012717 264.8257  95.1587 16.31769192238342",
    "norad_id": "51839"
  },
  {
    "name": "CZ-4C R/B",
    "tle1": "1 52085U 22027B   26159.15449061 -.00000019  00000-0  78032-4 0  9991",
    "tle2": "2 52085  63.3939  82.9703 0231783  22.6470 338.4596 13.65479338210807",
    "norad_id": "52085"
  },
  {
    "name": "LT-1 01A",
    "tle1": "1 51284U 22007A   26159.30718207  .00000611  00000-0  71789-4 0  9996",
    "tle2": "2 51284  97.8103 166.8534 0001575  90.6848 269.4549 14.88411238237153",
    "norad_id": "51284"
  },
  {
    "name": "ARCSAT-1",
    "tle1": "1 52161U 22033E   26158.91450912  .00013517  00000-0  21513-3 0  9990",
    "tle2": "2 52161  97.2745 251.0514 0004024 215.5333 144.5653 15.53395557234264",
    "norad_id": "52161"
  },
  {
    "name": "OBJECT J",
    "tle1": "1 51832U 22019J   26159.25591554  .00001828  00000-0  86965-4 0  9999",
    "tle2": "2 51832  97.3426 222.2973 0006942 259.2298 100.8156 15.20401553236443",
    "norad_id": "51832"
  },
  {
    "name": "GLOBAL-18",
    "tle1": "1 52196U 22034B   26158.68783574  .00024471  00000-0  50294-3 0  9995",
    "tle2": "2 52196  52.9826 302.0267 0003300 226.9821 133.0909 15.45867840235499",
    "norad_id": "52196"
  },
  {
    "name": "JILIN-01 GAOFEN 3D 28",
    "tle1": "1 52445U 22048C   26159.27224045  .00110515  00000-0  70540-3 0  9997",
    "tle2": "2 52445  97.5634 272.5308 0001646 145.8395 214.2976 15.76049609228128",
    "norad_id": "52445"
  },
  {
    "name": "JILIN-01 GAOFEN 3D 27",
    "tle1": "1 52444U 22048B   26159.25659258  .00095595  00000-0  68718-3 0  9996",
    "tle2": "2 52444  97.5698 272.3976 0002103  92.2134 267.9371 15.73331220228079",
    "norad_id": "52444"
  },
  {
    "name": "ENMAP",
    "tle1": "1 52159U 22033C   26159.27865619  .00000776  00000-0  12284-3 0  9999",
    "tle2": "2 52159  97.9786 241.6548 0001411  82.5638 277.5731 14.74982093225344",
    "norad_id": "52159"
  },
  {
    "name": "OBJECT F",
    "tle1": "1 51951U 22023F   26159.25093795  .00012737  00000-0  51052-3 0  9999",
    "tle2": "2 51951  63.4455 303.8602 0129306 342.7940  16.8808 15.17922282236351",
    "norad_id": "51951"
  },
  {
    "name": "LT-1 01B",
    "tle1": "1 51822U 22018A   26159.27354414  .00000637  00000-0  74573-4 0  9990",
    "tle2": "2 51822  97.8110 166.8161 0001604  92.1290 268.0111 14.88407439232384",
    "norad_id": "51822"
  },
  {
    "name": "DAQI 1",
    "tle1": "1 52257U 22039A   26159.29040899  .00000611  00000-0  14393-3 0  9992",
    "tle2": "2 52257  98.1482  98.3265 0002457 298.8112  61.2840 14.57673626220649",
    "norad_id": "52257"
  },
  {
    "name": "COSMOS 2558",
    "tle1": "1 53323U 22089A   26159.05660352  .00105731  00000-0  75942-3 0  9994",
    "tle2": "2 53323  97.2248 262.7618 0000736 185.1064 175.0193 15.73322119216394",
    "norad_id": "53323"
  },
  {
    "name": "GAOFEN 3 03",
    "tle1": "1 52200U 22035A   26159.27990361 -.00000077  00000-0 -10237-4 0  9994",
    "tle2": "2 52200  98.4067 167.9897 0001094  96.0977 264.0337 14.42213693219567",
    "norad_id": "52200"
  },
  {
    "name": "MERIDIAN 10",
    "tle1": "1 52145U 22030A   26158.99789140  .00000245  00000-0  00000-0 0  9994",
    "tle2": "2 52145  62.6782 141.7803 6781196 272.8620  17.6762  2.00614743 30840",
    "norad_id": "52145"
  }
]